[{"OBJECT_NAME":"STARLINK-5443","OBJECT_ID":"2022-175Z","EPOCH":"2026-03-09T07:43:29.461728","MEAN_MOTION":15.08833791,"ECCENTRICITY":0.00014584,"INCLINATION":53.2191,"RA_OF_ASC_NODE":30.7895,"ARG_OF_PERICENTER":89.9978,"MEAN_ANOMALY":270.1181,"EPHEMERIS_TYPE":0,"CLASSIFICATION_TYPE":"U","NORAD_CAT_ID":54781,"ELEMENT_SET_NO":999,"REV_AT_EPOCH":18007,"BSTAR":4.6012191e-5,"MEAN_MOTION_DOT":4.44e-6,"MEAN_MOTION_DDOT":0},{"OBJECT_NAME":"TITAN 3C TRANSTAGE DEB","OBJECT_ID":"1965-082PP","EPOCH":"2026-03-08T23:49:16.681152","MEAN_MOTION":15.10619215,"ECCENTRICITY":0.0014169,"INCLINATION":32.2612,"RA_OF_ASC_NODE":312.9247,"ARG_OF_PERICENTER":37.7873,"MEAN_ANOMALY":322.3781,"EPHEMERIS_TYPE":0,"CLASSIFICATION_TYPE":"U","NORAD_CAT_ID":3454,"ELEMENT_SET_NO":999,"REV_AT_EPOCH":23071,"BSTAR":0.00075143557,"MEAN_MOTION_DOT":0.00012814,"MEAN_MOTION_DDOT":0}]
